LEMUR-1                 
1 40044U 14033AL  24362.41643291  .00005026  00000+0  63483-3 0  9999
2 40044  97.7155 156.8418 0052838  37.7821 322.7083 14.81331000565883
LEMUR-2-GREENBERG       
1 42837U 17042N   24362.48912756  .00020080  00000+0  11664-2 0  9996
2 42837  97.3579 183.0534 0014303  87.7840 272.5029 15.12051188406778
LEMUR-2-ANDIS           
1 42838U 17042P   24362.49194085  .00022063  00000+0  12824-2 0  9997
2 42838  97.3558 182.6819 0015325  93.3874 266.9110 15.11995137406769
LEMUR-2-MONSON          
1 42839U 17042Q   24362.46396683  .00018840  00000+0  11564-2 0  9991
2 42839  97.3895 183.0685 0010767  76.1703 284.0724 15.10103058406680
LEMUR-2-FURIAUS         
1 42840U 17042R   24362.48113638  .00019091  00000+0  11618-2 0  9991
2 42840  97.3592 182.4432 0012102 135.6937 224.5264 15.10399328406689
LEMUR-2-PETERG          
1 42841U 17042S   24362.51163530  .00021664  00000+0  12742-2 0  9990
2 42841  97.3880 185.1943 0006752  71.3737 288.8226 15.11652732406789
LEMUR-2-DEMBITZ         
1 42842U 17042T   24362.50095631  .00021311  00000+0  12809-2 0  9999
2 42842  97.3722 184.4589 0010980  94.5030 265.7454 15.10838318406797
LEMUR-2-ZACHARY         
1 42845U 17042W   24362.51799924  .00025867  00000+0  13160-2 0  9990
2 42845  97.3690 186.4165 0007173 121.2943 238.8994 15.16787029407077
LEMUR-2-JIN-LUEN        
1 43182U 18014C   24362.29807585  .00033844  00000+0  14000-2 0  9991
2 43182  97.5719 265.4935 0012698  50.5912 309.6446 15.23810482378037
LEMUR-2-URAMCHANSOL     
1 43183U 18014D   24362.48961804  .00082090  00000+0  22442-2 0  9994
2 43183  97.5653 269.2766 0011704  43.3573 316.8590 15.36999753378290
LEMUR-2-KADI            
1 43184U 18014E   24362.45509066  .00030995  00000+0  12566-2 0  9993
2 43184  97.5415 264.8060 0010752  31.9126 328.2760 15.24529521378097
LEMUR-2-THENICKMOLO     
1 43185U 18014F   24362.59666790  .00053570  00000+0  17860-2 0  9993
2 43185  97.5734 267.6512 0007997  33.9774 326.1977 15.30873089378212
LEMUR-2-CHRISTINAHOLT   
1 43882U 18111G   24362.56927322  .00240929  00000+0  31043-2 0  9998
2 43882  97.6060 281.3343 0009064  64.2735 295.9455 15.58166536329419
LEMUR-2-TINYKEV         
1 43883U 18111H   24362.30977811  .01111610  54931-3  34751-2 0  9999
2 43883  97.5570 283.2302 0012042 104.7166 255.5442 15.91465378329656
LEMUR-2-REMY-COLTON     
1 43884U 18111J   24362.53957574  .00084187  00000+0  19109-2 0  9990
2 43884  97.6236 280.8331 0003662  73.9247 286.2403 15.42730227327400
LEMUR-2-GUSTAVO         
1 43885U 18111K   24362.56519286  .00097924  00000+0  22601-2 0  9992
2 43885  97.6177 279.5071 0010414  31.9944 328.1933 15.42124885329326
LEMUR-2-ZO              
1 43886U 18111L   24362.61443620  .00062201  00000+0  15057-2 0  9994
2 43886  97.6107 278.6820 0009986  34.2843 325.9046 15.40843505329334
LEMUR-2-NATALIEMURRAY   
1 43887U 18111M   24362.29628495  .00116079  00000+0  27028-2 0  9998
2 43887  97.6237 280.4277 0004855  24.2194 335.9280 15.41827187329334
LEMUR-2-SARAHBETTYBOO   
1 43888U 18111N   24362.31737865  .00135987  00000+0  23967-2 0  9991
2 43888  97.6529 285.4131 0012806  59.2390 301.0119 15.49838948329424
LEMUR-2-DAISY-HARPER    
1 43889U 18111P   24362.60319174  .00200518  00000+0  30598-2 0  9994
2 43889  97.6409 286.2832 0013483  79.9173 280.3600 15.53644082329567
LEMUR-2-NICHOL          
1 46503U 20068T   24362.49135736  .00255890  00000+0  13515-2 0  9994
2 46503  97.7889 346.9732 0004949  42.2131 317.9515 15.79908766234908
LEMUR-2-AMANDA-SVANTE   
1 48269U 21034B   24362.15225085  .00022409  00000+0  14674-2 0  9994
2 48269  97.6399  65.1993 0003051 335.6039  24.5044 15.07738635199480
LEMUR-2-SPECIAL-K       
1 48273U 21034F   24362.44666931  .00030594  00000+0  18332-2 0  9999
2 48273  97.6288  66.0703 0001983  55.4717 304.6699 15.10923073199599
LEMUR-2-EMBRIONOVIS     
1 56970U 23084AQ  24362.59210588  .00011664  00000+0  45733-3 0  9991
2 56970  97.5645 122.6614 0012694  59.0795 301.1688 15.25846671 85559
LEMUR-2-MANO            
1 57390U 23100E   24362.22413432  .00034283  00000+0  18050-2 0  9993
2 57390  99.4665 251.4366 0012054  30.2028 329.9891 15.15488038 79403
LEMUR-2-DEVERILL-M-T    
1 57391U 23100F   24362.53114600  .00027272  00000+0  15978-2 0  9999
2 57391  99.4460 250.0102 0012313  28.7826 331.4075 15.11723082 79416
LEMUR-2-BASS            
1 58259U 23174D   24362.46011107  .00019405  00000+0  76378-3 0  9995
2 58259  97.4349  74.4976 0009209 291.9236  68.1023 15.25633047 63078
LEMUR-2-DILIGHTFUL      
1 58260U 23174E   24362.47651330  .00085773  00000+0  20372-2 0  9999
2 58260  97.4376  77.8104 0007957 266.6244  93.4092 15.41335008 63279
LEMUR-2-GOOD-VIBES      
1 58263U 23174H   24362.47049355  .00067053  00000+0  16104-2 0  9999
2 58263  97.4260  77.4458 0006881 277.7115  82.3350 15.41087654 63272
LEMUR-2-SANITA-VETRA    
1 58267U 23174M   24362.19392178  .00073249  00000+0  17291-2 0  9998
2 58267  97.4322  77.2081 0006591 271.1997  88.8495 15.41584074 63234
LEMUR-2-MARAPAMASM      
1 58332U 23174CE  24362.55712918  .00095518  00000+0  15476-2 0  9995
2 58332  97.4269  80.4707 0005706 231.2943 128.7800 15.52435956 63480
LEMUR-2-THE-CLEANER     
1 58333U 23174CF  24362.17116653  .00083142  00000+0  17969-2 0  9997
2 58333  97.4315  78.1587 0007078 234.8711 125.1875 15.44178520 63293
LEMUR-2-JK0903EM1407    
1 58336U 23174CJ  24362.17555090  .00023587  00000+0  84381-3 0  9992
2 58336  97.4350  75.6002 0007202 246.0026 114.0460 15.28769700 63129
LEMUR-2-MJR092620       
1 58340U 23174CN  24362.48580302  .00024189  00000+0  84706-3 0  9995
2 58340  97.4418  76.4380 0008335 241.0767 118.9638 15.29454984 63184
